QZS-1R                  
1 49336U 21096A   24241.47063148 -.00000301  00000+0  00000+0 0  9992
2 49336  36.0915  89.4302 0741903 269.4044 280.7258  1.00297789 10411
